CCSDS_OMM_VERS = 2.0
CREATION_DATE  = 
ORIGINATOR     = 

OBJECT_NAME    = SL-16 R/B
OBJECT_ID      = 1996-051B
CENTER_NAME    = EARTH
REF_FRAME      = TEME
TIME_SYSTEM    = UTC
MEAN_ELEMENT_THEORY = SGP/SGP4

EPOCH          = 2025-10-26T19:36:07.746912
MEAN_MOTION    = 14.12392515
ECCENTRICITY   = .0016965
INCLINATION    = 70.7579
RA_OF_ASC_NODE = 98.5993
ARG_OF_PERICENTER = 321.9045
MEAN_ANOMALY   = 38.0874

EPHEMERIS_TYPE = 0
CLASSIFICATION_TYPE = U
NORAD_CAT_ID   = 24298
ELEMENT_SET_NO = 999
REV_AT_EPOCH   = 50274
BSTAR          = -.32901E-4
MEAN_MOTION_DOT = -.11E-5
MEAN_MOTION_DDOT = 0

CCSDS_OMM_VERS = 2.0
CREATION_DATE  = 
ORIGINATOR     = 

OBJECT_NAME    = ORBVIEW 2 (SEASTAR)
OBJECT_ID      = 1997-037A
CENTER_NAME    = EARTH
REF_FRAME      = TEME
TIME_SYSTEM    = UTC
MEAN_ELEMENT_THEORY = SGP/SGP4

EPOCH          = 2025-10-26T17:21:56.926656
MEAN_MOTION    = 14.35363241
ECCENTRICITY   = .0003225
INCLINATION    = 98.8438
RA_OF_ASC_NODE = 95.6231
ARG_OF_PERICENTER = 94.4909
MEAN_ANOMALY   = 265.6644

EPHEMERIS_TYPE = 0
CLASSIFICATION_TYPE = U
NORAD_CAT_ID   = 24883
ELEMENT_SET_NO = 999
REV_AT_EPOCH   = 48925
BSTAR          = .19193E-3
MEAN_MOTION_DOT = .504E-5
MEAN_MOTION_DDOT = 0

CCSDS_OMM_VERS = 2.0
CREATION_DATE  = 
ORIGINATOR     = 

OBJECT_NAME    = SL-16 R/B
OBJECT_ID      = 1998-043G
CENTER_NAME    = EARTH
REF_FRAME      = TEME
TIME_SYSTEM    = UTC
MEAN_ELEMENT_THEORY = SGP/SGP4

EPOCH          = 2025-10-26T18:54:29.397600
MEAN_MOTION    = 14.26007713
ECCENTRICITY   = .0010679
INCLINATION    = 98.8039
RA_OF_ASC_NODE = 247.3628
ARG_OF_PERICENTER = 47.0897
MEAN_ANOMALY   = 313.1177

EPHEMERIS_TYPE = 0
CLASSIFICATION_TYPE = U
NORAD_CAT_ID   = 25400
ELEMENT_SET_NO = 999
REV_AT_EPOCH   = 41990
BSTAR          = .79784E-4
MEAN_MOTION_DOT = .145E-5
MEAN_MOTION_DDOT = 0

CCSDS_OMM_VERS = 2.0
CREATION_DATE  = 
ORIGINATOR     = 

OBJECT_NAME    = SL-16 R/B
OBJECT_ID      = 1998-045B
CENTER_NAME    = EARTH
REF_FRAME      = TEME
TIME_SYSTEM    = UTC
MEAN_ELEMENT_THEORY = SGP/SGP4

EPOCH          = 2025-10-26T17:20:13.409952
MEAN_MOTION    = 14.16161853
ECCENTRICITY   = .0009279
INCLINATION    = 71.0085
RA_OF_ASC_NODE = 103.2995
ARG_OF_PERICENTER = 238.4190
MEAN_ANOMALY   = 121.6028

EPHEMERIS_TYPE = 0
CLASSIFICATION_TYPE = U
NORAD_CAT_ID   = 25407
ELEMENT_SET_NO = 999
REV_AT_EPOCH   = 40813
BSTAR          = .8905E-4
MEAN_MOTION_DOT = .128E-5
MEAN_MOTION_DDOT = 0

CCSDS_OMM_VERS = 2.0
CREATION_DATE  = 
ORIGINATOR     = 

OBJECT_NAME    = ISS (ZARYA)
OBJECT_ID      = 1998-067A
CENTER_NAME    = EARTH
REF_FRAME      = TEME
TIME_SYSTEM    = UTC
MEAN_ELEMENT_THEORY = SGP/SGP4

EPOCH          = 2025-10-26T17:11:32.379072
MEAN_MOTION    = 15.49497961
ECCENTRICITY   = .0004606
INCLINATION    = 51.6344
RA_OF_ASC_NODE = 15.2829
ARG_OF_PERICENTER = 341.7148
MEAN_ANOMALY   = 18.3675

EPHEMERIS_TYPE = 0
CLASSIFICATION_TYPE = U
NORAD_CAT_ID   = 25544
ELEMENT_SET_NO = 999
REV_AT_EPOCH   = 53556
BSTAR          = .28569E-3
MEAN_MOTION_DOT = .156E-3
MEAN_MOTION_DDOT = 0

CCSDS_OMM_VERS = 2.0
CREATION_DATE  = 
ORIGINATOR     = 

OBJECT_NAME    = CZ-4B R/B
OBJECT_ID      = 1999-025C
CENTER_NAME    = EARTH
REF_FRAME      = TEME
TIME_SYSTEM    = UTC
MEAN_ELEMENT_THEORY = SGP/SGP4

EPOCH          = 2025-10-26T20:32:12.217344
MEAN_MOTION    = 14.18226416
ECCENTRICITY   = .0037283
INCLINATION    = 98.6840
RA_OF_ASC_NODE = 342.1670
ARG_OF_PERICENTER = 11.5304
MEAN_ANOMALY   = 162.8489

EPHEMERIS_TYPE = 0
CLASSIFICATION_TYPE = U
NORAD_CAT_ID   = 25732
ELEMENT_SET_NO = 999
REV_AT_EPOCH   = 36919
BSTAR          = .73151E-4
MEAN_MOTION_DOT = .108E-5
MEAN_MOTION_DDOT = 0

CCSDS_OMM_VERS = 2.0
CREATION_DATE  = 
ORIGINATOR     = 

OBJECT_NAME    = OKEAN-O
OBJECT_ID      = 1999-039A
CENTER_NAME    = EARTH
REF_FRAME      = TEME
TIME_SYSTEM    = UTC
MEAN_ELEMENT_THEORY = SGP/SGP4

EPOCH          = 2025-10-26T17:41:32.054784
MEAN_MOTION    = 14.80043263
ECCENTRICITY   = .0001842
INCLINATION    = 97.9669
RA_OF_ASC_NODE = 355.8313
ARG_OF_PERICENTER = 80.0363
MEAN_ANOMALY   = 280.1057

EPHEMERIS_TYPE = 0
CLASSIFICATION_TYPE = U
NORAD_CAT_ID   = 25860
ELEMENT_SET_NO = 999
REV_AT_EPOCH   = 41457
BSTAR          = .14481E-3
MEAN_MOTION_DOT = .1044E-4
MEAN_MOTION_DDOT = 0

CCSDS_OMM_VERS = 2.0
CREATION_DATE  = 
ORIGINATOR     = 

OBJECT_NAME    = SL-16 R/B
OBJECT_ID      = 1999-039B
CENTER_NAME    = EARTH
REF_FRAME      = TEME
TIME_SYSTEM    = UTC
MEAN_ELEMENT_THEORY = SGP/SGP4

EPOCH          = 2025-10-26T15:25:25.468896
MEAN_MOTION    = 14.81485809
ECCENTRICITY   = .0014252
INCLINATION    = 98.0195
RA_OF_ASC_NODE = 353.7752
ARG_OF_PERICENTER = 337.3752
MEAN_ANOMALY   = 22.6831

EPHEMERIS_TYPE = 0
CLASSIFICATION_TYPE = U
NORAD_CAT_ID   = 25861
ELEMENT_SET_NO = 999
REV_AT_EPOCH   = 41701
BSTAR          = .11555E-3
MEAN_MOTION_DOT = .852E-5
MEAN_MOTION_DDOT = 0

CCSDS_OMM_VERS = 2.0
CREATION_DATE  = 
ORIGINATOR     = 

OBJECT_NAME    = DELTA 2 R/B
OBJECT_ID      = 1999-041E
CENTER_NAME    = EARTH
REF_FRAME      = TEME
TIME_SYSTEM    = UTC
MEAN_ELEMENT_THEORY = SGP/SGP4

EPOCH          = 2025-10-26T19:58:33.935808
MEAN_MOTION    = 14.11243469
ECCENTRICITY   = .0504513
INCLINATION    = 51.7630
RA_OF_ASC_NODE = 115.6587
ARG_OF_PERICENTER = 313.5099
MEAN_ANOMALY   = 42.4927

EPHEMERIS_TYPE = 0
CLASSIFICATION_TYPE = U
NORAD_CAT_ID   = 25876
ELEMENT_SET_NO = 999
REV_AT_EPOCH   = 34412
BSTAR          = .20142E-3
MEAN_MOTION_DOT = .1011E-4
MEAN_MOTION_DDOT = 0

CCSDS_OMM_VERS = 2.0
CREATION_DATE  = 
ORIGINATOR     = 

OBJECT_NAME    = HELIOS 1B
OBJECT_ID      = 1999-064A
CENTER_NAME    = EARTH
REF_FRAME      = TEME
TIME_SYSTEM    = UTC
MEAN_ELEMENT_THEORY = SGP/SGP4

EPOCH          = 2025-10-26T16:54:31.284864
MEAN_MOTION    = 14.86994368
ECCENTRICITY   = .0002287
INCLINATION    = 98.1756
RA_OF_ASC_NODE = 192.9838
ARG_OF_PERICENTER = 106.7455
MEAN_ANOMALY   = 253.4011

EPHEMERIS_TYPE = 0
CLASSIFICATION_TYPE = U
NORAD_CAT_ID   = 25977
ELEMENT_SET_NO = 999
REV_AT_EPOCH   = 66534
BSTAR          = .2944E-3
MEAN_MOTION_DOT = .2578E-4
MEAN_MOTION_DDOT = 0

CCSDS_OMM_VERS = 2.0
CREATION_DATE  = 
ORIGINATOR     = 

OBJECT_NAME    = TERRA
OBJECT_ID      = 1999-068A
CENTER_NAME    = EARTH
REF_FRAME      = TEME
TIME_SYSTEM    = UTC
MEAN_ELEMENT_THEORY = SGP/SGP4

EPOCH          = 2025-10-26T19:56:32.908416
MEAN_MOTION    = 14.60871078
ECCENTRICITY   = .000118
INCLINATION    = 97.9817
RA_OF_ASC_NODE = 353.2190
ARG_OF_PERICENTER = 219.4104
MEAN_ANOMALY   = 272.6066

EPHEMERIS_TYPE = 0
CLASSIFICATION_TYPE = U
NORAD_CAT_ID   = 25994
ELEMENT_SET_NO = 999
REV_AT_EPOCH   = 37553
BSTAR          = .1592E-3
MEAN_MOTION_DOT = .734E-5
MEAN_MOTION_DDOT = 0

CCSDS_OMM_VERS = 2.0
CREATION_DATE  = 
ORIGINATOR     = 

OBJECT_NAME    = SL-16 R/B
OBJECT_ID      = 2000-006B
CENTER_NAME    = EARTH
REF_FRAME      = TEME
TIME_SYSTEM    = UTC
MEAN_ELEMENT_THEORY = SGP/SGP4

EPOCH          = 2025-10-26T15:10:43.972896
MEAN_MOTION    = 14.15794284
ECCENTRICITY   = .0015725
INCLINATION    = 71.0044
RA_OF_ASC_NODE = 19.7063
ARG_OF_PERICENTER = 18.1732
MEAN_ANOMALY   = 341.9949

EPHEMERIS_TYPE = 0
CLASSIFICATION_TYPE = U
NORAD_CAT_ID   = 26070
ELEMENT_SET_NO = 999
REV_AT_EPOCH   = 32958
BSTAR          = .11241E-3
MEAN_MOTION_DOT = .173E-5
MEAN_MOTION_DDOT = 0

