SL-16 R/B               
1 24298U 96051B   25299.81675633 -.00000110  00000+0 -32901-4 0  9994
2 24298  70.7579  98.5993 0016965 321.9045  38.0874 14.12392515502747
ORBVIEW 2 (SEASTAR)     
1 24883U 97037A   25299.72357554  .00000504  00000+0  19193-3 0  9990
2 24883  98.8438  95.6231 0003225  94.4909 265.6644 14.35363241489253
SL-16 R/B               
1 25400U 98043G   25299.78784025  .00000145  00000+0  79784-4 0  9991
2 25400  98.8039 247.3628 0010679  47.0897 313.1177 14.26007713419907
SL-16 R/B               
1 25407U 98045B   25299.72237743  .00000128  00000+0  89050-4 0  9992
2 25407  71.0085 103.2995 0009279 238.4190 121.6028 14.16161853408136
ISS (ZARYA)             
1 25544U 98067A   25299.71634698  .00015600  00000+0  28569-3 0  9995
2 25544  51.6344  15.2829 0004606 341.7148  18.3675 15.49497961535565
CZ-4B R/B               
1 25732U 99025C   25299.85569696  .00000108  00000+0  73151-4 0  9994
2 25732  98.6840 342.1670 0037283  11.5304 162.8489 14.18226416369197
OKEAN-O                 
1 25860U 99039A   25299.73717656  .00001044  00000+0  14481-3 0  9999
2 25860  97.9669 355.8313 0001842  80.0363 280.1057 14.80043263414577
SL-16 R/B               
1 25861U 99039B   25299.64265589  .00000852  00000+0  11555-3 0  9998
2 25861  98.0195 353.7752 0014252 337.3752  22.6831 14.81485809417015
DELTA 2 R/B             
1 25876U 99041E   25299.83233722  .00001011  00000+0  20142-3 0  9992
2 25876  51.7630 115.6587 0504513 313.5099  42.4927 14.11243469344120
HELIOS 1B               
1 25977U 99064A   25299.70452876  .00002578  00000+0  29440-3 0  9997
2 25977  98.1756 192.9838 0002287 106.7455 253.4011 14.86994368665343
TERRA                   
1 25994U 99068A   25299.83093644  .00000734  00000+0  15920-3 0  9998
2 25994  97.9817 353.2190 0001180 219.4104 272.6066 14.60871078375530
SL-16 R/B               
1 26070U 00006B   25299.63245339  .00000173  00000+0  11241-3 0  9995
2 26070  71.0044  19.7063 0015725  18.1732 341.9949 14.15794284329582
